{"type": "FeatureCollection", "features": [ {"type": "Feature", "properties": {"norad_id": 34001, "name": "COSMOS 2251 DEB", "group": "cosmos-2251-debris", "lat": -1.7855344276483436, "lon": 81.09652576466252, "alt_km": 784.3618169097217, "timestamp": "2025-12-24T03:53:30.040557+00:00", "meta": {"OBJECT_NAME": "COSMOS 2251 DEB", "OBJECT_ID": "1993-036GL", "EPOCH": "2025-12-23T00:24:47.068416", "MEAN_MOTION": 14.37110028, "ECCENTRICITY": 0.00203867, "INCLINATION": 74.0388, "RA_OF_ASC_NODE": 262.6898, "ARG_OF_PERICENTER": 341.6562, "MEAN_ANOMALY": 39.0911, "EPHEMERIS_TYPE": 0, "CLASSIFICATION_TYPE": "U", "NORAD_CAT_ID": 34001, "ELEMENT_SET_NO": 999, "REV_AT_EPOCH": 88294, "BSTAR": 0.0001733119, "MEAN_MOTION_DOT": 4.9e-06, "MEAN_MOTION_DDOT": 0}, "tle": {"line1": "1 34001U 93036GL  25357.01721144  .00000490  00000+0  17331-3 0  9991", "line2": "2 34001  74.0388 262.6898 0020386 341.6562  39.0911 14.37110028882948"}}, "geometry": {"type": "Point", "coordinates": [81.09652576466252, -1.7855344276483436]}}, {"type": "Feature", "properties": {"norad_id": 34003, "name": "COSMOS 2251 DEB", "group": "cosmos-2251-debris", "lat": 53.54422416012297, "lon": -71.350634145981, "alt_km": 790.3547575244693, "timestamp": "2025-12-24T03:53:30.040567+00:00", "meta": {"OBJECT_NAME": "COSMOS 2251 DEB", "OBJECT_ID": "1993-036GN", "EPOCH": "2025-12-21T04:31:05.940480", "MEAN_MOTION": 13.84194066, "ECCENTRICITY": 0.02749729, "INCLINATION": 74.0776, "RA_OF_ASC_NODE": 270.923, "ARG_OF_PERICENTER": 21.0006, "MEAN_ANOMALY": 340.2152, "EPHEMERIS_TYPE": 0, "CLASSIFICATION_TYPE": "U", "NORAD_CAT_ID": 34003, "ELEMENT_SET_NO": 999, "REV_AT_EPOCH": 84542, "BSTAR": 0.0013455154, "MEAN_MOTION_DOT": 1.989e-05, "MEAN_MOTION_DDOT": 0}, "tle": {"line1": "1 34003U 93036GN  25355.18826320  .00001989  00000+0  13455-2 0  9997", "line2": "2 34003  74.0776 270.9230 0274972  21.0006 340.2152 13.84194066845428"}}, "geometry": {"type": "Point", "coordinates": [-71.350634145981, 53.54422416012297]}}, {"type": "Feature", "properties": {"norad_id": 34004, "name": "COSMOS 2251 DEB", "group": "cosmos-2251-debris", "lat": -17.89582832761928, "lon": 116.99481185314691, "alt_km": 738.8207521778122, "timestamp": "2025-12-24T03:53:30.040577+00:00", "meta": {"OBJECT_NAME": "COSMOS 2251 DEB", "OBJECT_ID": "1993-036GP", "EPOCH": "2025-12-22T21:09:05.914080", "MEAN_MOTION": 14.49095837, "ECCENTRICITY": 0.0033456, "INCLINATION": 74.036, "RA_OF_ASC_NODE": 294.0919, "ARG_OF_PERICENTER": 305.1142, "MEAN_ANOMALY": 54.6882, "EPHEMERIS_TYPE": 0, "CLASSIFICATION_TYPE": "U", "NORAD_CAT_ID": 34004, "ELEMENT_SET_NO": 999, "REV_AT_EPOCH": 88177, "BSTAR": 0.001259, "MEAN_MOTION_DOT": 4.793e-05, "MEAN_MOTION_DDOT": 0}, "tle": {"line1": "1 34004U 93036GP  25356.88131845  .00004793  00000+0  12590-2 0  9992", "line2": "2 34004  74.0360 294.0919 0033456 305.1142  54.6882 14.49095837881778"}}, "geometry": {"type": "Point", "coordinates": [116.99481185314691, -17.89582832761928]}}, {"type": "Feature", "properties": {"norad_id": 34005, "name": "COSMOS 2251 DEB", "group": "cosmos-2251-debris", "lat": 62.156807953563074, "lon": -20.25307385573064, "alt_km": 765.6080302824594, "timestamp": "2025-12-24T03:53:30.040587+00:00", "meta": {"OBJECT_NAME": "COSMOS 2251 DEB", "OBJECT_ID": "1993-036GQ", "EPOCH": "2025-12-23T06:14:25.080000", "MEAN_MOTION": 14.40311372, "ECCENTRICITY": 0.00211759, "INCLINATION": 74.0435, "RA_OF_ASC_NODE": 194.2103, "ARG_OF_PERICENTER": 310.6496, "MEAN_ANOMALY": 166.5401, "EPHEMERIS_TYPE": 0, "CLASSIFICATION_TYPE": "U", "NORAD_CAT_ID": 34005, "ELEMENT_SET_NO": 999, "REV_AT_EPOCH": 88530, "BSTAR": 9.2059865e-05, "MEAN_MOTION_DOT": 2.66e-06, "MEAN_MOTION_DDOT": 0}, "tle": {"line1": "1 34005U 93036GQ  25357.26001250  .00000266  00000+0  92060-4 0  9995", "line2": "2 34005  74.0435 194.2103 0021175 310.6496 166.5401 14.40311372885305"}}, "geometry": {"type": "Point", "coordinates": [-20.25307385573064, 62.156807953563074]}}, {"type": "Feature", "properties": {"norad_id": 34006, "name": "COSMOS 2251 DEB", "group": "cosmos-2251-debris", "lat": 64.21105949959814, "lon": -96.01087737897588, "alt_km": 569.8097697988196, "timestamp": "2025-12-24T03:53:30.040598+00:00", "meta": {"OBJECT_NAME": "COSMOS 2251 DEB", "OBJECT_ID": "1993-036GR", "EPOCH": "2025-12-23T09:59:27.714336", "MEAN_MOTION": 14.95449075, "ECCENTRICITY": 0.0011627, "INCLINATION": 74.0535, "RA_OF_ASC_NODE": 121.7745, "ARG_OF_PERICENTER": 54.9449, "MEAN_ANOMALY": 1.6406, "EPHEMERIS_TYPE": 0, "CLASSIFICATION_TYPE": "U", "NORAD_CAT_ID": 34006, "ELEMENT_SET_NO": 999, "REV_AT_EPOCH": 88828, "BSTAR": 0.0034401, "MEAN_MOTION_DOT": 0.00038281, "MEAN_MOTION_DDOT": 0}, "tle": {"line1": "1 34006U 93036GR  25357.41629299  .00038281  00000+0  34401-2 0  9993", "line2": "2 34006  74.0535 121.7745 0011627  54.9449   1.6406 14.95449075888287"}}, "geometry": {"type": "Point", "coordinates": [-96.01087737897588, 64.21105949959814]}}, {"type": "Feature", "properties": {"norad_id": 34007, "name": "COSMOS 2251 DEB", "group": "cosmos-2251-debris", "lat": -59.186496277348, "lon": 173.62362235646947, "alt_km": 710.4441767330318, "timestamp": "2025-12-24T03:53:30.040607+00:00", "meta": {"OBJECT_NAME": "COSMOS 2251 DEB", "OBJECT_ID": "1993-036GS", "EPOCH": "2025-12-22T22:55:27.291072", "MEAN_MOTION": 14.64853734, "ECCENTRICITY": 0.00442517, "INCLINATION": 74.0194, "RA_OF_ASC_NODE": 327.2302, "ARG_OF_PERICENTER": 98.8389, "MEAN_ANOMALY": 261.7793, "EPHEMERIS_TYPE": 0, "CLASSIFICATION_TYPE": "U", "NORAD_CAT_ID": 34007, "ELEMENT_SET_NO": 999, "REV_AT_EPOCH": 89229, "BSTAR": 0.00073274699, "MEAN_MOTION_DOT": 3.941e-05, "MEAN_MOTION_DDOT": 0}, "tle": {"line1": "1 34007U 93036GS  25356.95517698  .00003941  00000+0  73275-3 0  9999", "line2": "2 34007  74.0194 327.2302 0044251  98.8389 261.7793 14.64853734892291"}}, "geometry": {"type": "Point", "coordinates": [173.62362235646947, -59.186496277348]}}, {"type": "Feature", "properties": {"norad_id": 34008, "name": "COSMOS 2251 DEB", "group": "cosmos-2251-debris", "lat": 73.52948616627314, "lon": 25.17143025041071, "alt_km": 787.8761790492845, "timestamp": "2025-12-24T03:53:30.040617+00:00", "meta": {"OBJECT_NAME": "COSMOS 2251 DEB", "OBJECT_ID": "1993-036GT", "EPOCH": "2025-12-23T04:06:37.232928", "MEAN_MOTION": 14.33153169, "ECCENTRICITY": 0.00246154, "INCLINATION": 74.0348, "RA_OF_ASC_NODE": 311.4535, "ARG_OF_PERICENTER": 305.0049, "MEAN_ANOMALY": 70.4741, "EPHEMERIS_TYPE": 0, "CLASSIFICATION_TYPE": "U", "NORAD_CAT_ID": 34008, "ELEMENT_SET_NO": 999, "REV_AT_EPOCH": 88114, "BSTAR": 0.00011777181, "MEAN_MOTION_DOT": 2.98e-06, "MEAN_MOTION_DDOT": 0}, "tle": {"line1": "1 34008U 93036GT  25357.17126427  .00000298  00000+0  11777-3 0  9992", "line2": "2 34008  74.0348 311.4535 0024615 305.0049  70.4741 14.33153169881145"}}, "geometry": {"type": "Point", "coordinates": [25.17143025041071, 73.52948616627314]}}, {"type": "Feature", "properties": {"norad_id": 34009, "name": "COSMOS 2251 DEB", "group": "cosmos-2251-debris", "lat": 51.75107017886327, "lon": 114.7731550068794, "alt_km": 779.9875902906333, "timestamp": "2025-12-24T03:53:30.040628+00:00", "meta": {"OBJECT_NAME": "COSMOS 2251 DEB", "OBJECT_ID": "1993-036GU", "EPOCH": "2025-12-23T03:56:05.915040", "MEAN_MOTION": 14.33230267, "ECCENTRICITY": 0.00269069, "INCLINATION": 74.0376, "RA_OF_ASC_NODE": 317.8861, "ARG_OF_PERICENTER": 24.4975, "MEAN_ANOMALY": 352.1129, "EPHEMERIS_TYPE": 0, "CLASSIFICATION_TYPE": "U", "NORAD_CAT_ID": 34009, "ELEMENT_SET_NO": 999, "REV_AT_EPOCH": 88095, "BSTAR": 0.00014226972, "MEAN_MOTION_DOT": 3.67e-06, "MEAN_MOTION_DDOT": 0}, "tle": {"line1": "1 34009U 93036GU  25357.16395735  .00000367  00000+0  14227-3 0  9992", "line2": "2 34009  74.0376 317.8861 0026906  24.4975 352.1129 14.33230267880957"}}, "geometry": {"type": "Point", "coordinates": [114.7731550068794, 51.75107017886327]}}, {"type": "Feature", "properties": {"norad_id": 34010, "name": "COSMOS 2251 DEB", "group": "cosmos-2251-debris", "lat": -50.70596903819455, "lon": -121.20266636521052, "alt_km": 511.61281375283215, "timestamp": "2025-12-24T03:53:30.040638+00:00", "meta": {"OBJECT_NAME": "COSMOS 2251 DEB", "OBJECT_ID": "1993-036GV", "EPOCH": "2025-12-22T11:04:03.553536", "MEAN_MOTION": 15.20239732, "ECCENTRICITY": 0.00044981, "INCLINATION": 73.9984, "RA_OF_ASC_NODE": 262.9011, "ARG_OF_PERICENTER": 57.977, "MEAN_ANOMALY": 302.1864, "EPHEMERIS_TYPE": 0, "CLASSIFICATION_TYPE": "U", "NORAD_CAT_ID": 34010, "ELEMENT_SET_NO": 999, "REV_AT_EPOCH": 89433, "BSTAR": 0.0045006568, "MEAN_MOTION_DOT": 0.00098985, "MEAN_MOTION_DDOT": 0}, "tle": {"line1": "1 34010U 93036GV  25356.46115224  .00098985  00000+0  45007-2 0  9991", "line2": "2 34010  73.9984 262.9011 0004498  57.9770 302.1864 15.20239732894336"}}, "geometry": {"type": "Point", "coordinates": [-121.20266636521052, -50.70596903819455]}}, {"type": "Feature", "properties": {"norad_id": 34011, "name": "COSMOS 2251 DEB", "group": "cosmos-2251-debris", "lat": 54.01289580602334, "lon": 105.7051900783999, "alt_km": 748.4039166421926, "timestamp": "2025-12-24T03:53:30.040649+00:00", "meta": {"OBJECT_NAME": "COSMOS 2251 DEB", "OBJECT_ID": "1993-036GW", "EPOCH": "2025-12-20T21:03:41.222016", "MEAN_MOTION": 14.41804306, "ECCENTRICITY": 0.0036046, "INCLINATION": 74.0145, "RA_OF_ASC_NODE": 315.0473, "ARG_OF_PERICENTER": 36.2778, "MEAN_ANOMALY": 324.0811, "EPHEMERIS_TYPE": 0, "CLASSIFICATION_TYPE": "U", "NORAD_CAT_ID": 34011, "ELEMENT_SET_NO": 999, "REV_AT_EPOCH": 88033, "BSTAR": 0.00051243, "MEAN_MOTION_DOT": 1.661e-05, "MEAN_MOTION_DDOT": 0}, "tle": {"line1": "1 34011U 93036GW  25354.87756044  .00001661  00000+0  51243-3 0  9991", "line2": "2 34011  74.0145 315.0473 0036046  36.2778 324.0811 14.41804306880339"}}, "geometry": {"type": "Point", "coordinates": [105.7051900783999, 54.01289580602334]}}]}